ECHOSTAR 10             
1 28935U 06003A   26148.69892397 -.00000046  00000+0  00000+0 0  9999
2 28935   0.0178 341.3107 0001733  59.6937 346.6504  1.00272055 74266
SPAINSAT                
1 28945U 06007A   26148.40085115 -.00000208  00000+0  00000+0 0  9995
2 28945   0.5134  86.8650 0005094 338.1990 294.9919  1.00272636 74020
JCSAT-5A                
1 29045U 06010A   26148.81822241 -.00000318  00000+0  00000+0 0  9997
2 29045   1.0608  84.4311 0002126 354.4358 234.1104  1.00271338 73573
ASTRA 1KR               
1 29055U 06012A   26148.79578744  .00000128  00000+0  00000+0 0  9991
2 29055   0.4252  83.1715 0003730 339.4580 129.1951  1.00270049 45501
GALAXY 16 (G-16)        
1 29236U 06023A   26148.62981061  .00000000  00000+0  00000+0 0  9995
2 29236   0.0224  77.8884 0002830 355.2015 300.8122  1.00272248 72773
EUTELSAT 33F            
1 29270U 06032A   26148.79860678  .00000165  00000+0  00000+0 0  9993
2 29270   1.6131  82.4496 0003734 335.9319 148.5502  1.00269969 47117
JCSAT-3A                
1 29272U 06033A   26148.81735573 -.00000335  00000+0  00000+0 0  9994
2 29272   0.0357  69.6549 0002022 341.1614 257.7807  1.00271332 47549
KOREASAT 5 (MUGUNGWHA 5)
1 29349U 06034A   26148.74211523 -.00000348  00000+0  00000+0 0  9990
2 29349   1.7368  83.2171 0002103  15.7595 167.5060  1.00269805 41128
DIRECTV 9S              
1 29494U 06043A   26148.58910662 -.00000105  00000+0  00000+0 0  9994
2 29494   2.3720  81.1335 0005069 357.1956 278.6858  1.00272080 51180
OPTUS D1                
1 29495U 06043B   26148.82212242 -.00000174  00000+0  00000+0 0  9997
2 29495   2.9867  79.8871 0003897 343.8518 270.5719  1.00271876 71924
BADR-4                  
1 29526U 06051A   26148.51214272  .00000155  00000+0  00000+0 0  9990
2 29526   1.9559  81.3229 0004932 331.9154  43.6683  1.00278547 51071
WILDBLUE-1              
1 29643U 06054A   26148.53092785 -.00000041  00000+0  00000+0 0  9993
2 29643   2.7542  80.7236 0001732 350.1703 255.1198  1.00272968 53592
SKYNET 5A               
1 30794U 07007B   26148.70302904 -.00000264  00000+0  00000+0 0  9994
2 30794   5.2523  73.9721 0003990   0.5232 160.0776  1.00271563 70508
ANIK F3                 
1 31102U 07009A   26148.69727729  .00000008  00000+0  00000+0 0  9999
2 31102   1.1486  84.0754 0002908 345.8810 308.6075  1.00273514 46366
ASTRA 1L                
1 31306U 07016A   26148.78720741 -.00000175  00000+0  00000+0 0  9996
2 31306   1.2733  81.7296 0005367 355.0658  68.4323  1.00272685 44798
GALAXY 17 (G-17)        
1 31307U 07016B   26148.77516068 -.00000197  00000+0  00000+0 0  9995
2 31307   2.9250  80.1394 0004805   5.1155 355.1220  1.00272372 69617
INTELSAT 11 (IS-11)     
1 32253U 07044B   26148.76259397  .00000033  00000+0  00000+0 0  9993
2 32253   3.5166  78.8999 0001101  70.7395 222.3169  0.99050755 68258
WGS F1 (USA 195)        
1 32258U 07046A   26148.78365405 -.00000257  00000+0  00000+0 0  9999
2 32258   0.0581  98.7008 0000589 300.1431  87.0943  1.00270888 52149
SKYNET 5B               
1 32294U 07056B   26148.51179605  .00000147  00000+0  00000+0 0  9993
2 32294   5.2038  73.7339 0003836 348.4071  33.2435  1.00270595 68002
ASTRA 4A                
1 32299U 07057A   26148.74363355  .00000042  00000+0  00000+0 0  9995
2 32299   0.0132 329.2935 0002510  97.6508  91.8530  1.00270910 51450
HORIZONS-2              
1 32388U 07063B   26148.56351433 -.00000245  00000+0  00000+0 0  9991
2 32388   2.5533  80.8623 0004086 347.5645 306.7684  1.00271805 67611
THURAYA-3               
1 32404U 08001A   26145.80835274 -.00000274  00000+0  00000+0 0  9999
2 32404   5.9532  35.7788 0001287  90.5902 145.1750  1.00158693 67267
THOR 5                  
1 32487U 08006A   26148.72059073  .00000000  00000+0  00000+0 0  9990
2 32487   0.0198 261.7997 0002721 170.5554  72.5788  1.00270675 67125
AMC-14                  
1 32708U 08011A   26147.73428900 -.00000002  00000+0  00000+0 0  9994
2 32708  23.9628  20.7255 0049976  92.2727  95.7206  1.00350219 67965
DIRECTV 11              
1 32729U 08013A   26148.41542169 -.00000117  00000+0  00000+0 0  9996
2 32729   0.0034 196.2650 0000273 192.8966 267.1581  1.00270352 45395
ICO G1                  
1 32763U 08016A   26148.63111061 -.00000166  00000+0  00000+0 0  9998
2 32763   5.5274  36.1819 0002101  17.7233 326.6100  1.00271593 66346
VINASAT-1               
1 32767U 08018A   26148.53303545 -.00000319  00000+0  00000+0 0  9993
2 32767   0.0117 313.5750 0001723 126.0047 130.3282  1.00269079 66390
STAR ONE C2             
1 32768U 08018B   26148.49394264 -.00000268  00000+0  00000+0 0  9990
2 32768   1.1924  82.6363 0002891 343.4068 292.8278  1.00272714 66454
AMOS-3                  
1 32794U 08022A   26148.72570410  .00000162  00000+0  00000+0 0  9991
2 32794   0.4066  86.5250 0001494  51.7468  34.1501  1.00466760 82147
GALAXY 18 (G-18)        
1 32951U 08024A   26148.69641064  .00000034  00000+0  00000+0 0  9996
2 32951   0.0518 100.8368 0003214 332.7980 300.3198  1.00274117 45651
ZHONGXING-9             
1 33051U 08028A   26148.88164833 -.00000239  00000+0  00000+0 0  9995
2 33051   0.7214  85.5803 0005062 317.6502 252.9750  1.00272007 65846
SKYNET 5C               
1 33055U 08030A   26148.71721073 -.00000131  00000+0  00000+0 0  9990
2 33055   3.7408  77.2668 0004211 356.8908  52.5262  1.00271836 65767
TURKSAT 3A              
1 33056U 08030B   26148.80034014  .00000156  00000+0  00000+0 0  9999
2 33056   0.0541  89.6447 0005328 331.6969 155.1373  1.00275376 52162
INTELSAT 25 (IS-25)     
1 33153U 08034A   26148.76198728  .00000019  00000+0  00000+0 0  9997
2 33153   2.6599  80.5407 0001877  18.9895 269.5408  0.99034159 65493
ECHOSTAR 11             
1 33207U 08035A   26148.59195485 -.00000049  00000+0  00000+0 0  9990
2 33207   0.9560  84.3923 0002845 320.8332 304.2186  1.00271464 51012
SUPERBIRD-C2            
1 33274U 08038A   26148.79906013 -.00000297  00000+0  00000+0 0  9991
2 33274   2.3126  81.4971 0005861  15.8469 212.6458  1.00273033105539
INMARSAT 4-F3           
1 33278U 08039A   26148.63007061 -.00000134  00000+0  00000+0 0  9994
2 33278   4.2769  31.5539 0002806  40.4776 302.9703  1.00271658 46344
NIMIQ 4                 
1 33373U 08044A   26148.77568068 -.00000210  00000+0  00000+0 0  9995
2 33373   0.0214 308.4218 0001968 125.3713   9.7711  1.00268728 64784
GALAXY 19 (G-19)        
1 33376U 08045A   26148.46653148 -.00000130  00000+0  00000+0 0  9990
2 33376   0.0457 115.4193 0003267 323.4461 238.0999  1.00271374 64707
ASTRA 1M                
1 33436U 08057A   26148.79587411  .00000130  00000+0  00000+0 0  9994
2 33436   0.2479  82.1202 0004825  11.5417  98.5747  1.00270346 45547
EUTELSAT HOTBIRD 13C    
1 33459U 08065A   26148.78209405 -.00000274  00000+0  00000+0 0  9991
2 33459   2.9022  79.4153 0004057 347.9594  50.1961  1.00272807 47153
EXPRESS-AM44            
1 33595U 09007A   26148.86114603 -.00000080  00000+0  00000+0 0  9998
2 33595   3.4162  78.6260 0004384 341.8943 124.8863  1.00271739 52091
NSS-9                   
1 33749U 09008A   26148.82827579  .00000081  00000+0  00000+0 0  9999
2 33749   1.2133  82.8336 0002343 335.5246 309.2481  1.00272174 63323
TELSTAR 11N             
1 34111U 09009A   26148.78460740  .00000000  00000+0  00000+0 0  9993
2 34111   0.0216 334.2630 0002877  82.4689  74.5033  1.00268884 46057
WGS F2 (USA 204)        
1 34713U 09017A   26148.51820942  .00000077  00000+0  00000+0 0  9999
2 34713   0.0178 331.5795 0001133 249.8890 268.6593  1.00272449 45420
SES-7 (PROTOSTAR 2)     
1 34941U 09027A   26148.81345572 -.00000335  00000+0  00000+0 0  9995
2 34941   0.0636  83.4728 0000721  43.7770 160.2220  1.00272843 62433
MEASAT-3A               
1 35362U 09032A   26148.82368242 -.00000101  00000+0  00000+0 0  9990
2 35362   0.0391  39.4456 0003126  26.3716 277.0632  1.00271597  7839
GOES 14                 
1 35491U 09033A   26148.82229575 -.00000197  00000+0  00000+0 0  9994
2 35491   1.6421  83.2670 0002080 350.7804 261.1472  1.00116975  6392
FM-5                    
1 35493U 09034A   26148.77490068 -.00000190  00000+0  00000+0 0  9991
2 35493   0.0160 308.4021 0000337 330.6875 160.0316  1.00270301 46445
TERRESTAR-1             
1 35496U 09035A   26148.47228622 -.00000050  00000+0  00000+0 0  9992
2 35496   5.1689  48.8075 0002768  13.8996 242.3129  1.00272913 61936
ASIASAT 5               
1 35696U 09042A   26148.88320834 -.00000297  00000+0  00000+0 0  9998
2 35696   0.0154 312.6009 0001594 101.7792 250.5041  1.00270067 61511
JCSAT-12 (JCSAT-RA)     
1 35755U 09044A   26148.71433462 -.00000318  00000+0  00000+0 0  9994
2 35755   0.0460  91.3023 0000331 288.3766 255.7719  1.00271931 61414
OPTUS D3                
1 35756U 09044B   26148.53169905 -.00000136  00000+0  00000+0 0  9991
2 35756   0.8571 270.3599 0003435 158.5454 164.7140  1.00270693 61368
NIMIQ 5                 
1 35873U 09050A   26148.34988507 -.00000248  00000+0  00000+0 0  9998
2 35873   0.0194 315.6108 0003201 112.4213 231.1186  1.00270792 61148
AMAZONAS 2              
1 35942U 09054A   26148.77835328 -.00000252  00000+0  00000+0 0  9993
2 35942   1.7667  83.2824 0000221 307.6729  68.2496  1.00125996 60990
COMSATBW-1              
1 35943U 09054B   26148.44802220  .00000032  00000+0  00000+0 0  9998
2 35943   0.0405  68.4585 0003381   4.2818  37.5863  1.00276156 61118
NSS-12                  
1 36032U 09058A   26148.83864102  .00000081  00000+0  00000+0 0  9996
2 36032   0.0805  68.6752 0005262 329.5769 207.0380  1.00272141 60722
THOR 6                  
1 36033U 09058B   26148.72059073  .00000000  00000+0  00000+0 0  9999
2 36033   0.0125 321.6128 0002126 116.7384  66.4772  1.00271524 60818
INTELSAT 14 (IS-14)     
1 36097U 09064A   26148.78313405 -.00000264  00000+0  00000+0 0  9997
2 36097   0.0174 341.6759 0002697  95.3153  46.2684  1.00271990 60414
